start=new Date('2022-12-28T00:00:00.000Z').valueOf();
sats=[{"APOAPSIS":"548.854","ECCENTRICITY":"0.00023800","PERIOD":"95.592","RCS_SIZE":"LARGE","REF_FRAME":"TEME","MEAN_ANOMALY":"316.1614","EPHEMERIS_TYPE":"0","REV_AT_EPOCH":"9169","MEAN_MOTION":"15.06402509","CENTER_NAME":"EARTH","PERIAPSIS":"545.558","COUNTRY_CODE":"US","TLE_LINE1":"1 48476U 21040BA  22361.51789307  .00001501  00000-0  11966-3 0  9993","OBJECT_TYPE":"PAYLOAD","GP_ID":"221626758","TIME_SYSTEM":"UTC","FILE":"3724176","DECAY_DATE":null,"MEAN_ELEMENT_THEORY":"SGP4","CLASSIFICATION_TYPE":"U","ARG_OF_PERICENTER":"43.9564","NORAD_CAT_ID":"48476","LAUNCH_DATE":"2021-05-09","INCLINATION":"53.0560","BSTAR":"0.00011966000000","SITE":"AFETR","TLE_LINE2":"2 48476  53.0560  35.7551 0002380  43.9564 316.1614 15.06402509 91699","EPOCH":"2022-12-27T12:25:45.961248","ELEMENT_SET_NO":"999","OBJECT_ID":"2021-040BA","RA_OF_ASC_NODE":"35.7551","MEAN_MOTION_DDOT":"0.0000000000000","MEAN_MOTION_DOT":"0.00001501","SEMIMAJOR_AXIS":"6925.341","OBJECT_NAME":"STARLINK-2723"},{"APOAPSIS":"549.040","RCS_SIZE":"LARGE","PERIOD":"95.592","ECCENTRICITY":"0.00026750","CENTER_NAME":"EARTH","REV_AT_EPOCH":"9041","MEAN_MOTION":"15.06408427","MEAN_ANOMALY":"323.1702","EPHEMERIS_TYPE":"0","REF_FRAME":"TEME","TIME_SYSTEM":"UTC","GP_ID":"221564642","OBJECT_TYPE":"PAYLOAD","TLE_LINE1":"1 48478U 21040BC  22361.50314982  .00002895  00000-0  21316-3 0  9994","COUNTRY_CODE":"US","PERIAPSIS":"545.335","NORAD_CAT_ID":"48478","CLASSIFICATION_TYPE":"U","ARG_OF_PERICENTER":"36.9471","FILE":"3723863","MEAN_ELEMENT_THEORY":"SGP4","DECAY_DATE":null,"BSTAR":"0.00021316000000","INCLINATION":"53.0552","LAUNCH_DATE":"2021-05-09","RA_OF_ASC_NODE":"35.8128","OBJECT_ID":"2021-040BC","TLE_LINE2":"2 48478  53.0552  35.8128 0002675  36.9471 323.1702 15.06408427 90419","EPOCH":"2022-12-27T12:04:32.144448","SITE":"AFETR","ELEMENT_SET_NO":"999","SEMIMAJOR_AXIS":"6925.323","OBJECT_NAME":"STARLINK-2728","MEAN_MOTION_DDOT":"0.0000000000000","MEAN_MOTION_DOT":"0.00002895"},{"MEAN_MOTION_DDOT":"0.0000000000000","MEAN_MOTION_DOT":"0.00004645","OBJECT_NAME":"STARLINK-2755","SEMIMAJOR_AXIS":"6925.325","SITE":"AFETR","TLE_LINE2":"2 48479  53.0534  36.4291 0001915  49.9306 310.1851 15.06407722 90390","EPOCH":"2022-12-27T08:48:09.813600","ELEMENT_SET_NO":"999","RA_OF_ASC_NODE":"36.4291","OBJECT_ID":"2021-040BD","BSTAR":"0.00033044000000","INCLINATION":"53.0534","LAUNCH_DATE":"2021-05-09","CLASSIFICATION_TYPE":"U","ARG_OF_PERICENTER":"49.9306","FILE":"3723863","DECAY_DATE":null,"MEAN_ELEMENT_THEORY":"SGP4","NORAD_CAT_ID":"48479","COUNTRY_CODE":"US","PERIAPSIS":"545.864","OBJECT_TYPE":"PAYLOAD","GP_ID":"221563390","TIME_SYSTEM":"UTC","TLE_LINE1":"1 48479U 21040BD  22361.36678025  .00004645  00000-0  33044-3 0  9996","MEAN_ANOMALY":"310.1851","EPHEMERIS_TYPE":"0","REF_FRAME":"TEME","CENTER_NAME":"EARTH","MEAN_MOTION":"15.06407722","REV_AT_EPOCH":"9039","ECCENTRICITY":"0.00019150","RCS_SIZE":"LARGE","PERIOD":"95.592","APOAPSIS":"548.516"},{"LAUNCH_DATE":"2021-05-09","BSTAR":"0.00026870000000","INCLINATION":"53.0560","NORAD_CAT_ID":"48480","DECAY_DATE":null,"FILE":"3723863","MEAN_ELEMENT_THEORY":"SGP4","CLASSIFICATION_TYPE":"U","ARG_OF_PERICENTER":"33.1187","OBJECT_NAME":"STARLINK-2690","SEMIMAJOR_AXIS":"6925.314","MEAN_MOTION_DDOT":"0.0000000000000","MEAN_MOTION_DOT":"0.00003724","OBJECT_ID":"2021-040BE","RA_OF_ASC_NODE":"45.7749","TLE_LINE2":"2 48480  53.0560  45.7749 0002567  33.1187 326.9962 15.06411327 90279","EPOCH":"2022-12-27T12:17:45.848544","SITE":"AFETR","ELEMENT_SET_NO":"999","PERIOD":"95.591","RCS_SIZE":"LARGE","ECCENTRICITY":"0.00025670","APOAPSIS":"548.957","TLE_LINE1":"1 48480U 21040BE  22361.51233621  .00003724  00000-0  26870-3 0  9990","GP_ID":"221563141","OBJECT_TYPE":"PAYLOAD","TIME_SYSTEM":"UTC","COUNTRY_CODE":"US","PERIAPSIS":"545.401","REV_AT_EPOCH":"9027","MEAN_MOTION":"15.06411327","CENTER_NAME":"EARTH","REF_FRAME":"TEME","MEAN_ANOMALY":"326.9962","EPHEMERIS_TYPE":"0"},{"MEAN_MOTION_DOT":"0.00002193","MEAN_MOTION_DDOT":"0.0000000000000","OBJECT_NAME":"STARLINK-2706","SEMIMAJOR_AXIS":"6925.323","ELEMENT_SET_NO":"999","TLE_LINE2":"2 48481  53.0547  45.8714 0002430  41.1699 318.9473 15.06408485 90273","EPOCH":"2022-12-27T13:17:33.907488","SITE":"AFETR","OBJECT_ID":"2021-040BF","RA_OF_ASC_NODE":"45.8714","LAUNCH_DATE":"2021-05-09","INCLINATION":"53.0547","BSTAR":"0.00016608000000","FILE":"3723863","MEAN_ELEMENT_THEORY":"SGP4","DECAY_DATE":null,"ARG_OF_PERICENTER":"41.1699","CLASSIFICATION_TYPE":"U","NORAD_CAT_ID":"48481","PERIAPSIS":"545.505","COUNTRY_CODE":"US","TLE_LINE1":"1 48481U 21040BF  22361.55386467  .00002193  00000-0  16608-3 0  9999","OBJECT_TYPE":"PAYLOAD","GP_ID":"221564392","TIME_SYSTEM":"UTC","REF_FRAME":"TEME","EPHEMERIS_TYPE":"0","MEAN_ANOMALY":"318.9473","REV_AT_EPOCH":"9027","MEAN_MOTION":"15.06408485","CENTER_NAME":"EARTH","ECCENTRICITY":"0.00024300","PERIOD":"95.592","RCS_SIZE":"LARGE","APOAPSIS":"548.870"},{"TLE_LINE1":"1 48482U 21040BG  22361.38797282  .00001490  00000-0  11886-3 0  9994","TIME_SYSTEM":"UTC","GP_ID":"221564143","OBJECT_TYPE":"PAYLOAD","PERIAPSIS":"546.263","COUNTRY_CODE":"US","REV_AT_EPOCH":"9025","MEAN_MOTION":"15.06404761","CENTER_NAME":"EARTH","REF_FRAME":"TEME","EPHEMERIS_TYPE":"0","MEAN_ANOMALY":"279.2033","PERIOD":"95.592","RCS_SIZE":"LARGE","ECCENTRICITY":"0.00013510","APOAPSIS":"548.135","SEMIMAJOR_AXIS":"6925.334","OBJECT_NAME":"STARLINK-2525","MEAN_MOTION_DOT":"0.00001490","MEAN_MOTION_DDOT":"0.0000000000000","OBJECT_ID":"2021-040BG","RA_OF_ASC_NODE":"46.3397","ELEMENT_SET_NO":"999","TLE_LINE2":"2 48482  53.0534  46.3397 0001351  80.9109 279.2033 15.06404761 90253","EPOCH":"2022-12-27T09:18:40.851648","SITE":"AFETR","LAUNCH_DATE":"2021-05-09","BSTAR":"0.00011886000000","INCLINATION":"53.0534","NORAD_CAT_ID":"48482","DECAY_DATE":null,"FILE":"3723863","MEAN_ELEMENT_THEORY":"SGP4","ARG_OF_PERICENTER":"80.9109","CLASSIFICATION_TYPE":"U"},{"MEAN_MOTION":"15.06411138","REV_AT_EPOCH":"9027","CENTER_NAME":"EARTH","REF_FRAME":"TEME","EPHEMERIS_TYPE":"0","MEAN_ANOMALY":"303.6517","TLE_LINE1":"1 48483U 21040BH  22361.51697898  .00003651  00000-0  26378-3 0  9995","GP_ID":"221562891","TIME_SYSTEM":"UTC","OBJECT_TYPE":"PAYLOAD","COUNTRY_CODE":"US","PERIAPSIS":"545.954","APOAPSIS":"548.405","PERIOD":"95.591","RCS_SIZE":"LARGE","ECCENTRICITY":"0.00017700","OBJECT_ID":"2021-040BH","RA_OF_ASC_NODE":"45.7586","ELEMENT_SET_NO":"999","EPOCH":"2022-12-27T12:24:26.983872","TLE_LINE2":"2 48483  53.0529  45.7586 0001770  56.4641 303.6517 15.06411138 90272","SITE":"AFETR","OBJECT_NAME":"STARLINK-2531","SEMIMAJOR_AXIS":"6925.314","MEAN_MOTION_DOT":"0.00003651","MEAN_MOTION_DDOT":"0.0000000000000","NORAD_CAT_ID":"48483","MEAN_ELEMENT_THEORY":"SGP4","FILE":"3723863","DECAY_DATE":null,"ARG_OF_PERICENTER":"56.4641","CLASSIFICATION_TYPE":"U","LAUNCH_DATE":"2021-05-09","BSTAR":"0.00026378000000","INCLINATION":"53.0529"},{"MEAN_ELEMENT_THEORY":"SGP4","FILE":"3723863","DECAY_DATE":null,"CLASSIFICATION_TYPE":"U","ARG_OF_PERICENTER":"47.2160","NORAD_CAT_ID":"48484","LAUNCH_DATE":"2021-05-09","INCLINATION":"53.0549","BSTAR":"0.00017285000000","TLE_LINE2":"2 48484  53.0549  46.6644 0001833  47.2160 312.8982 15.06406737 90259","EPOCH":"2022-12-27T09:29:21.317568","SITE":"AFETR","ELEMENT_SET_NO":"999","OBJECT_ID":"2021-040BJ","RA_OF_ASC_NODE":"46.6644","MEAN_MOTION_DDOT":"0.0000000000000","MEAN_MOTION_DOT":"0.00002294","SEMIMAJOR_AXIS":"6925.328","OBJECT_NAME":"STARLINK-2696","APOAPSIS":"548.462","ECCENTRICITY":"0.00018330","PERIOD":"95.592","RCS_SIZE":"LARGE","REF_FRAME":"TEME","MEAN_ANOMALY":"312.8982","EPHEMERIS_TYPE":"0","MEAN_MOTION":"15.06406737","REV_AT_EPOCH":"9025","CENTER_NAME":"EARTH","COUNTRY_CODE":"US","PERIAPSIS":"545.923","TLE_LINE1":"1 48484U 21040BJ  22361.39538562  .00002294  00000-0  17285-3 0  9993","GP_ID":"221563641","TIME_SYSTEM":"UTC","OBJECT_TYPE":"PAYLOAD"},{"MEAN_ANOMALY":"321.9325","EPHEMERIS_TYPE":"0","REF_FRAME":"TEME","CENTER_NAME":"EARTH","MEAN_MOTION":"15.06408693","REV_AT_EPOCH":"9025","PERIAPSIS":"545.643","COUNTRY_CODE":"US","TIME_SYSTEM":"UTC","GP_ID":"221563893","OBJECT_TYPE":"PAYLOAD","TLE_LINE1":"1 48485U 21040BK  22361.39165195  .00001961  00000-0  15050-3 0  9990","APOAPSIS":"548.731","ECCENTRICITY":"0.00022290","RCS_SIZE":"LARGE","PERIOD":"95.592","EPOCH":"2022-12-27T09:23:58.728480","TLE_LINE2":"2 48485  53.0562  46.3246 0002229  38.1822 321.9325 15.06408693 90259","SITE":"AFETR","ELEMENT_SET_NO":"999","RA_OF_ASC_NODE":"46.3246","OBJECT_ID":"2021-040BK","MEAN_MOTION_DDOT":"0.0000000000000","MEAN_MOTION_DOT":"0.00001961","SEMIMAJOR_AXIS":"6925.322","OBJECT_NAME":"STARLINK-2500","CLASSIFICATION_TYPE":"U","ARG_OF_PERICENTER":"38.1822","MEAN_ELEMENT_THEORY":"SGP4","FILE":"3723863","DECAY_DATE":null,"NORAD_CAT_ID":"48485","BSTAR":"0.00015050000000","INCLINATION":"53.0562","LAUNCH_DATE":"2021-05-09"},{"OBJECT_ID":"2021-040BL","RA_OF_ASC_NODE":"46.2992","EPOCH":"2022-12-27T09:27:55.822176","TLE_LINE2":"2 48486  53.0551  46.2992 0002309  57.5181 302.6031 15.06407891 90256","SITE":"AFETR","ELEMENT_SET_NO":"999","SEMIMAJOR_AXIS":"6925.324","OBJECT_NAME":"STARLINK-2496","MEAN_MOTION_DDOT":"0.0000000000000","MEAN_MOTION_DOT":"-0.00000239","NORAD_CAT_ID":"48486","DECAY_DATE":null,"FILE":"3723863","MEAN_ELEMENT_THEORY":"SGP4","CLASSIFICATION_TYPE":"U","ARG_OF_PERICENTER":"57.5181","LAUNCH_DATE":"2021-05-09","BSTAR":"0.00000290130000","INCLINATION":"53.0551","REV_AT_EPOCH":"9025","MEAN_MOTION":"15.06407891","CENTER_NAME":"EARTH","REF_FRAME":"TEME","MEAN_ANOMALY":"302.6031","EPHEMERIS_TYPE":"0","TLE_LINE1":"1 48486U 21040BL  22361.39439609 -.00000239  00000-0  29013-5 0  9999","TIME_SYSTEM":"UTC","GP_ID":"221564643","OBJECT_TYPE":"PAYLOAD","PERIAPSIS":"545.590","COUNTRY_CODE":"US","APOAPSIS":"548.788","PERIOD":"95.592","RCS_SIZE":"LARGE","ECCENTRICITY":"0.00023090"}];
